{
    "links": {
        "self": "http://www.neowsapp.com/rest/v1/neo/3837866?api_key=iIulBulltgU6a56xZRHN4H3l9WmuAYTsLGpBGhQ2"
    },
    "id": "3837866",
    "neo_reference_id": "3837866",
    "name": "(2019 AV11)",
    "designation": "2019 AV11",
    "nasa_jpl_url": "http://ssd.jpl.nasa.gov/sbdb.cgi?sstr=3837866",
    "absolute_magnitude_h": 24.1,
    "estimated_diameter": {
        "kilometers": {
            "estimated_diameter_min": 0.040230458,
            "estimated_diameter_max": 0.0899580388
        },
        "meters": {
            "estimated_diameter_min": 40.2304579834,
            "estimated_diameter_max": 89.9580388169
        },
        "miles": {
            "estimated_diameter_min": 0.0249980399,
            "estimated_diameter_max": 0.0558973165
        },
        "feet": {
            "estimated_diameter_min": 131.9896957704,
            "estimated_diameter_max": 295.1379320721
        }
    },
    "is_potentially_hazardous_asteroid": false,
    "close_approach_data": [
        {
            "close_approach_date": "2019-01-16",
            "close_approach_date_full": "2019-Jan-16 07:52",
            "epoch_date_close_approach": 1547625120000,
            "relative_velocity": {
                "kilometers_per_second": "3.2656262131",
                "kilometers_per_hour": "11756.2543670903",
                "miles_per_hour": "7304.8792760401"
            },
            "miss_distance": {
                "astronomical": "0.2395943656",
                "lunar": "93.2022082184",
                "kilometers": "35842806.757761272",
                "miles": "22271687.3674066736"
            },
            "orbiting_body": "Earth"
        }
    ],
    "orbital_data": {
        "orbit_id": "5",
        "orbit_determination_date": "2019-02-05 08:00:45",
        "first_observation_date": "2019-01-13",
        "last_observation_date": "2019-02-04",
        "data_arc_in_days": 22,
        "observations_used": 23,
        "orbit_uncertainty": "8",
        "minimum_orbit_intersection": ".234994",
        "jupiter_tisserand_invariant": "3.380",
        "epoch_osculation": "2458498.5",
        "eccentricity": ".4841890965192803",
        "semi_major_axis": "2.361760093349703",
        "inclination": "3.520729318855258",
        "ascending_node_longitude": "103.1914305320506",
        "orbital_period": "1325.720881575196",
        "perihelion_distance": "1.218221607555419",
        "perihelion_argument": "10.82156134308316",
        "aphelion_distance": "3.505298579143987",
        "perihelion_time": "2458495.586857535096",
        "mean_anomaly": ".7910649231981305",
        "mean_motion": ".2715503730862676",
        "equinox": "J2000",
        "orbit_class": {
            "orbit_class_type": "AMO",
            "orbit_class_description": "Near-Earth asteroid orbits similar to that of 1221 Amor",
            "orbit_class_range": "1.017 AU < q (perihelion) < 1.3 AU"
        }
    },
    "is_sentry_object": false
}